CZ-2C R/B               
1 54039U 22132E   26003.92884054  .00045011  00000+0  63128-3 0  9995
2 54039  97.2937   5.5747 0018710 338.5898  21.4572 15.56419631180280
GSLV R/B                
1 54149U 22138AN  26003.92664686  .00004649  00000+0  40721-3 0  9996
2 54149  87.3821 188.0426 0022986  32.3462 327.9173 14.96274911174244
XRISM                   
1 57800U 23137A   26003.64153061  .00010409  00000+0  60797-3 0  9998
2 57800  31.0035 344.1141 0007663 107.8843 252.2631 15.10633405127947
ACS3                    
1 59588U 24077B   26003.84372805  .00041971  00000+0  35198-1 0  9991
2 59588  97.2516 319.5104 0068768 283.0674  76.2818 13.86745188 85203
SZ-21 MODULE            
1 66515U 25246C   26003.70989194  .00038050  00000+0  39561-3 0  9992
2 66515  41.4753 241.9020 0002123  31.2361 328.8605 15.63848513  7880
