CCSDS_OMM_VERS = 2.0
CREATION_DATE  = 
ORIGINATOR     = 

OBJECT_NAME    = CZ-2C R/B
OBJECT_ID      = 2022-132E
CENTER_NAME    = EARTH
REF_FRAME      = TEME
TIME_SYSTEM    = UTC
MEAN_ELEMENT_THEORY = SGP/SGP4

EPOCH          = 2026-01-03T22:17:31.822656
MEAN_MOTION    = 15.56419631
ECCENTRICITY   = .00187108
INCLINATION    = 97.2937
RA_OF_ASC_NODE = 5.5747
ARG_OF_PERICENTER = 338.5898
MEAN_ANOMALY   = 21.4572

EPHEMERIS_TYPE = 0
CLASSIFICATION_TYPE = U
NORAD_CAT_ID   = 54039
ELEMENT_SET_NO = 999
REV_AT_EPOCH   = 18028
BSTAR          = .63127661E-3
MEAN_MOTION_DOT = .45011E-3
MEAN_MOTION_DDOT = 0

CCSDS_OMM_VERS = 2.0
CREATION_DATE  = 
ORIGINATOR     = 

OBJECT_NAME    = GSLV R/B
OBJECT_ID      = 2022-138AN
CENTER_NAME    = EARTH
REF_FRAME      = TEME
TIME_SYSTEM    = UTC
MEAN_ELEMENT_THEORY = SGP/SGP4

EPOCH          = 2026-01-03T22:14:22.288704
MEAN_MOTION    = 14.96274911
ECCENTRICITY   = .0022986
INCLINATION    = 87.3821
RA_OF_ASC_NODE = 188.0426
ARG_OF_PERICENTER = 32.3462
MEAN_ANOMALY   = 327.9173

EPHEMERIS_TYPE = 0
CLASSIFICATION_TYPE = U
NORAD_CAT_ID   = 54149
ELEMENT_SET_NO = 999
REV_AT_EPOCH   = 17424
BSTAR          = .40720862E-3
MEAN_MOTION_DOT = .4649E-4
MEAN_MOTION_DDOT = 0

CCSDS_OMM_VERS = 2.0
CREATION_DATE  = 
ORIGINATOR     = 

OBJECT_NAME    = XRISM
OBJECT_ID      = 2023-137A
CENTER_NAME    = EARTH
REF_FRAME      = TEME
TIME_SYSTEM    = UTC
MEAN_ELEMENT_THEORY = SGP/SGP4

EPOCH          = 2026-01-03T15:23:48.244704
MEAN_MOTION    = 15.10633405
ECCENTRICITY   = .00076633
INCLINATION    = 31.0035
RA_OF_ASC_NODE = 344.1141
ARG_OF_PERICENTER = 107.8843
MEAN_ANOMALY   = 252.2631

EPHEMERIS_TYPE = 0
CLASSIFICATION_TYPE = U
NORAD_CAT_ID   = 57800
ELEMENT_SET_NO = 999
REV_AT_EPOCH   = 12794
BSTAR          = .60796601E-3
MEAN_MOTION_DOT = .10409E-3
MEAN_MOTION_DDOT = 0

CCSDS_OMM_VERS = 2.0
CREATION_DATE  = 
ORIGINATOR     = 

OBJECT_NAME    = ACS3
OBJECT_ID      = 2024-077B
CENTER_NAME    = EARTH
REF_FRAME      = TEME
TIME_SYSTEM    = UTC
MEAN_ELEMENT_THEORY = SGP/SGP4

EPOCH          = 2026-01-03T20:14:58.103520
MEAN_MOTION    = 13.86745188
ECCENTRICITY   = .00687686
INCLINATION    = 97.2516
RA_OF_ASC_NODE = 319.5104
ARG_OF_PERICENTER = 283.0674
MEAN_ANOMALY   = 76.2818

EPHEMERIS_TYPE = 0
CLASSIFICATION_TYPE = U
NORAD_CAT_ID   = 59588
ELEMENT_SET_NO = 999
REV_AT_EPOCH   = 8520
BSTAR          = .35198415E-1
MEAN_MOTION_DOT = .41971E-3
MEAN_MOTION_DDOT = 0

CCSDS_OMM_VERS = 2.0
CREATION_DATE  = 
ORIGINATOR     = 

OBJECT_NAME    = SZ-21 MODULE
OBJECT_ID      = 2025-246C
CENTER_NAME    = EARTH
REF_FRAME      = TEME
TIME_SYSTEM    = UTC
MEAN_ELEMENT_THEORY = SGP/SGP4

EPOCH          = 2026-01-03T17:02:14.663616
MEAN_MOTION    = 15.63848513
ECCENTRICITY   = .00021237
INCLINATION    = 41.4753
RA_OF_ASC_NODE = 241.9020
ARG_OF_PERICENTER = 31.2361
MEAN_ANOMALY   = 328.8605

EPHEMERIS_TYPE = 0
CLASSIFICATION_TYPE = U
NORAD_CAT_ID   = 66515
ELEMENT_SET_NO = 999
REV_AT_EPOCH   = 788
BSTAR          = .39560556E-3
MEAN_MOTION_DOT = .3805E-3
MEAN_MOTION_DDOT = 0

